start=new Date('2022-08-11T00:00:00.000Z').valueOf();
sats=[{"TLE_LINE1":"1 48599U 21041AY  22222.39350719 -.00001215  00000-0 -62685-4 0  9992","CENTER_NAME":"EARTH","RA_OF_ASC_NODE":"225.3060","OBJECT_ID":"2021-041AY","PERIOD":"95.592","MEAN_MOTION_DDOT":"0.0000000000000","MEAN_MOTION":"15.06396065","MEAN_MOTION_DOT":"-0.00001215","SEMIMAJOR_AXIS":"6925.361","RCS_SIZE":"LARGE","MEAN_ELEMENT_THEORY":"SGP4","SITE":"AFETR","REF_FRAME":"TEME","CLASSIFICATION_TYPE":"U","OBJECT_NAME":"STARLINK-2274","TLE_LINE2":"2 48599  53.0546 225.3060 0001382  69.1634 290.9502 15.06396065 69644","BSTAR":"-0.00006268500000","MEAN_ANOMALY":"290.9502","REV_AT_EPOCH":"6964","OBJECT_TYPE":"PAYLOAD","TIME_SYSTEM":"UTC","INCLINATION":"53.0546","ARG_OF_PERICENTER":"69.1634","FILE":"3533800","PERIAPSIS":"546.269","EPOCH":"2022-08-10T09:26:39.021216","EPHEMERIS_TYPE":"0","COUNTRY_CODE":"US","DECAY_DATE":null,"APOAPSIS":"548.183","LAUNCH_DATE":"2021-05-15","NORAD_CAT_ID":"48599","ELEMENT_SET_NO":"999","GP_ID":"209968355","ECCENTRICITY":"0.00013820"},{"SEMIMAJOR_AXIS":"6925.353","MEAN_MOTION_DOT":"0.00000438","MEAN_MOTION":"15.06398640","OBJECT_ID":"2021-041AZ","PERIOD":"95.592","MEAN_MOTION_DDOT":"0.0000000000000","TLE_LINE1":"1 48600U 21041AZ  22222.56351879  .00000438  00000-0  48290-4 0  9992","CENTER_NAME":"EARTH","RA_OF_ASC_NODE":"239.5332","CLASSIFICATION_TYPE":"U","OBJECT_NAME":"STARLINK-2275","TLE_LINE2":"2 48600  53.0544 239.5332 0001308  91.9795 268.1344 15.06398640 69454","SITE":"AFETR","REF_FRAME":"TEME","RCS_SIZE":"LARGE","MEAN_ELEMENT_THEORY":"SGP4","EPOCH":"2022-08-10T13:31:28.023456","PERIAPSIS":"546.312","TIME_SYSTEM":"UTC","INCLINATION":"53.0544","FILE":"3533963","ARG_OF_PERICENTER":"91.9795","MEAN_ANOMALY":"268.1344","BSTAR":"0.00004829000000","REV_AT_EPOCH":"6945","OBJECT_TYPE":"PAYLOAD","GP_ID":"209994640","ECCENTRICITY":"0.00013080","ELEMENT_SET_NO":"999","LAUNCH_DATE":"2021-05-15","NORAD_CAT_ID":"48600","EPHEMERIS_TYPE":"0","COUNTRY_CODE":"US","DECAY_DATE":null,"APOAPSIS":"548.124"},{"REF_FRAME":"TEME","SITE":"AFETR","MEAN_ELEMENT_THEORY":"SGP4","RCS_SIZE":"LARGE","TLE_LINE2":"2 48602  53.0533 225.1576 0001735  68.2695 291.8478 15.06388614 69636","OBJECT_NAME":"STARLINK-2713","CLASSIFICATION_TYPE":"U","MEAN_MOTION_DDOT":"0.0000000000000","PERIOD":"95.593","OBJECT_ID":"2021-041BB","RA_OF_ASC_NODE":"225.1576","CENTER_NAME":"EARTH","TLE_LINE1":"1 48602U 21041BB  22222.42668389 -.00000386  00000-0 -70396-5 0  9993","MEAN_MOTION_DOT":"-0.00000386","SEMIMAJOR_AXIS":"6925.383","MEAN_MOTION":"15.06388614","NORAD_CAT_ID":"48602","LAUNCH_DATE":"2021-05-15","APOAPSIS":"548.450","DECAY_DATE":null,"COUNTRY_CODE":"US","EPHEMERIS_TYPE":"0","ECCENTRICITY":"0.00017350","GP_ID":"209967356","ELEMENT_SET_NO":"999","ARG_OF_PERICENTER":"68.2695","FILE":"3533800","INCLINATION":"53.0533","TIME_SYSTEM":"UTC","OBJECT_TYPE":"PAYLOAD","REV_AT_EPOCH":"6963","BSTAR":"-0.00000703960000","MEAN_ANOMALY":"291.8478","EPOCH":"2022-08-10T10:14:25.488096","PERIAPSIS":"546.047"},{"PERIAPSIS":"546.126","EPOCH":"2022-08-10T09:44:31.532928","OBJECT_TYPE":"PAYLOAD","BSTAR":"0.00003287800000","REV_AT_EPOCH":"6971","MEAN_ANOMALY":"301.8217","ARG_OF_PERICENTER":"58.2929","FILE":"3533800","TIME_SYSTEM":"UTC","INCLINATION":"53.0548","ELEMENT_SET_NO":"999","ECCENTRICITY":"0.00016110","GP_ID":"209967103","COUNTRY_CODE":"US","DECAY_DATE":null,"APOAPSIS":"548.358","EPHEMERIS_TYPE":"0","NORAD_CAT_ID":"48603","LAUNCH_DATE":"2021-05-15","MEAN_MOTION":"15.06390752","SEMIMAJOR_AXIS":"6925.377","MEAN_MOTION_DOT":"0.00000208","CENTER_NAME":"EARTH","RA_OF_ASC_NODE":"220.2358","TLE_LINE1":"1 48603U 21041BC  22222.40592052  .00000208  00000-0  32878-4 0  9998","MEAN_MOTION_DDOT":"0.0000000000000","OBJECT_ID":"2021-041BC","PERIOD":"95.593","OBJECT_NAME":"STARLINK-2714","TLE_LINE2":"2 48603  53.0548 220.2358 0001611  58.2929 301.8217 15.06390752 69717","CLASSIFICATION_TYPE":"U","MEAN_ELEMENT_THEORY":"SGP4","RCS_SIZE":"LARGE","REF_FRAME":"TEME","SITE":"AFETR"},{"ECCENTRICITY":"0.00015220","GP_ID":"209967856","ELEMENT_SET_NO":"999","NORAD_CAT_ID":"48604","LAUNCH_DATE":"2021-05-15","COUNTRY_CODE":"US","DECAY_DATE":null,"APOAPSIS":"548.284","EPHEMERIS_TYPE":"0","EPOCH":"2022-08-10T08:11:40.624224","PERIAPSIS":"546.176","FILE":"3533800","ARG_OF_PERICENTER":"69.1363","TIME_SYSTEM":"UTC","INCLINATION":"53.0538","OBJECT_TYPE":"PAYLOAD","MEAN_ANOMALY":"290.9789","BSTAR":"-0.00008117900000","REV_AT_EPOCH":"6928","OBJECT_NAME":"STARLINK-2757","TLE_LINE2":"2 48604  53.0538 250.5418 0001522  69.1363 290.9789 15.06394544 69281","CLASSIFICATION_TYPE":"U","REF_FRAME":"TEME","SITE":"AFETR","MEAN_ELEMENT_THEORY":"SGP4","RCS_SIZE":"LARGE","MEAN_MOTION_DOT":"-0.00001490","SEMIMAJOR_AXIS":"6925.365","MEAN_MOTION":"15.06394544","MEAN_MOTION_DDOT":"0.0000000000000","OBJECT_ID":"2021-041BD","PERIOD":"95.592","CENTER_NAME":"EARTH","RA_OF_ASC_NODE":"250.5418","TLE_LINE1":"1 48604U 21041BD  22222.34144241 -.00001490  00000-0 -81179-4 0  9999"},{"RCS_SIZE":"LARGE","MEAN_ELEMENT_THEORY":"SGP4","SITE":"AFETR","REF_FRAME":"TEME","CLASSIFICATION_TYPE":"U","OBJECT_NAME":"STARLINK-2758","TLE_LINE2":"2 48638  53.0534 225.1630 0001340  71.9680 288.1455 15.06390728 66746","TLE_LINE1":"1 48638U 21044A   22222.42573652 -.00002215  00000-0 -12989-3 0  9998","CENTER_NAME":"EARTH","RA_OF_ASC_NODE":"225.1630","OBJECT_ID":"2021-044A","PERIOD":"95.593","MEAN_MOTION_DDOT":"0.0000000000000","MEAN_MOTION":"15.06390728","MEAN_MOTION_DOT":"-0.00002215","SEMIMAJOR_AXIS":"6925.377","EPHEMERIS_TYPE":"0","DECAY_DATE":null,"COUNTRY_CODE":"US","APOAPSIS":"548.170","LAUNCH_DATE":"2021-05-26","NORAD_CAT_ID":"48638","ELEMENT_SET_NO":"999","GP_ID":"209966862","ECCENTRICITY":"0.00013400","BSTAR":"-0.00012989000000","MEAN_ANOMALY":"288.1455","REV_AT_EPOCH":"6674","OBJECT_TYPE":"PAYLOAD","TIME_SYSTEM":"UTC","INCLINATION":"53.0534","FILE":"3533800","ARG_OF_PERICENTER":"71.9680","PERIAPSIS":"546.314","EPOCH":"2022-08-10T10:13:03.635328"},{"ELEMENT_SET_NO":"999","GP_ID":"209967606","ECCENTRICITY":"0.00016310","EPHEMERIS_TYPE":"0","COUNTRY_CODE":"US","DECAY_DATE":null,"APOAPSIS":"548.368","LAUNCH_DATE":"2021-05-26","NORAD_CAT_ID":"48639","PERIAPSIS":"546.109","EPOCH":"2022-08-10T06:40:45.270336","BSTAR":"0.00002982500000","MEAN_ANOMALY":"291.0593","REV_AT_EPOCH":"6672","OBJECT_TYPE":"PAYLOAD","TIME_SYSTEM":"UTC","INCLINATION":"53.0541","FILE":"3533800","ARG_OF_PERICENTER":"69.0571","CLASSIFICATION_TYPE":"U","OBJECT_NAME":"STARLINK-2739","TLE_LINE2":"2 48639  53.0541 225.8303 0001631  69.0571 291.0593 15.06391957 66728","RCS_SIZE":"LARGE","MEAN_ELEMENT_THEORY":"SGP4","SITE":"AFETR","REF_FRAME":"TEME","MEAN_MOTION":"15.06391957","SEMIMAJOR_AXIS":"6925.373","MEAN_MOTION_DOT":"0.00000163","TLE_LINE1":"1 48639U 21044B   22222.27830174  .00000163  00000-0  29825-4 0  9993","CENTER_NAME":"EARTH","RA_OF_ASC_NODE":"225.8303","OBJECT_ID":"2021-044B","PERIOD":"95.593","MEAN_MOTION_DDOT":"0.0000000000000"},{"OBJECT_TYPE":"PAYLOAD","BSTAR":"0.00011781000000","REV_AT_EPOCH":"6675","MEAN_ANOMALY":"291.7845","ARG_OF_PERICENTER":"68.3300","FILE":"3533963","TIME_SYSTEM":"UTC","INCLINATION":"53.0544","PERIAPSIS":"546.251","EPOCH":"2022-08-10T12:53:42.969696","DECAY_DATE":null,"COUNTRY_CODE":"US","APOAPSIS":"548.278","EPHEMERIS_TYPE":"0","NORAD_CAT_ID":"48640","LAUNCH_DATE":"2021-05-26","ELEMENT_SET_NO":"999","ECCENTRICITY":"0.00014640","GP_ID":"209995875","CENTER_NAME":"EARTH","RA_OF_ASC_NODE":"224.9387","TLE_LINE1":"1 48640U 21044C   22222.53730289  .00001473  00000-0  11781-3 0  9996","MEAN_MOTION_DDOT":"0.0000000000000","OBJECT_ID":"2021-044C","PERIOD":"95.593","MEAN_MOTION":"15.06383370","SEMIMAJOR_AXIS":"6925.400","MEAN_MOTION_DOT":"0.00001473","MEAN_ELEMENT_THEORY":"SGP4","RCS_SIZE":"LARGE","REF_FRAME":"TEME","SITE":"AFETR","OBJECT_NAME":"STARLINK-2736","TLE_LINE2":"2 48640  53.0544 224.9387 0001464  68.3300 291.7845 15.06383370 66751","CLASSIFICATION_TYPE":"U"},{"CLASSIFICATION_TYPE":"U","OBJECT_NAME":"STARLINK-2754","TLE_LINE2":"2 48641  53.0534 230.7946 0001427  64.3592 295.7544 15.06389599 66653","SITE":"AFETR","REF_FRAME":"TEME","RCS_SIZE":"LARGE","MEAN_ELEMENT_THEORY":"SGP4","SEMIMAJOR_AXIS":"6925.380","MEAN_MOTION_DOT":"-0.00000051","MEAN_MOTION":"15.06389599","OBJECT_ID":"2021-044D","PERIOD":"95.593","MEAN_MOTION_DDOT":"0.0000000000000","TLE_LINE1":"1 48641U 21044D   22222.28431752 -.00000051  00000-0  15474-4 0  9998","CENTER_NAME":"EARTH","RA_OF_ASC_NODE":"230.7946","GP_ID":"209968103","ECCENTRICITY":"0.00014270","ELEMENT_SET_NO":"999","LAUNCH_DATE":"2021-05-26","NORAD_CAT_ID":"48641","EPHEMERIS_TYPE":"0","COUNTRY_CODE":"US","DECAY_DATE":null,"APOAPSIS":"548.234","EPOCH":"2022-08-10T06:49:25.033728","PERIAPSIS":"546.257","TIME_SYSTEM":"UTC","INCLINATION":"53.0534","FILE":"3533800","ARG_OF_PERICENTER":"64.3592","BSTAR":"0.00001547400000","REV_AT_EPOCH":"6665","MEAN_ANOMALY":"295.7544","OBJECT_TYPE":"PAYLOAD"},{"REF_FRAME":"TEME","SITE":"AFETR","MEAN_ELEMENT_THEORY":"SGP4","RCS_SIZE":"LARGE","OBJECT_NAME":"STARLINK-2646","TLE_LINE2":"2 48642  53.0527 230.1277 0001462  72.5369 287.5780 15.06388319 66671","CLASSIFICATION_TYPE":"U","MEAN_MOTION_DDOT":"0.0000000000000","OBJECT_ID":"2021-044E","PERIOD":"95.593","CENTER_NAME":"EARTH","RA_OF_ASC_NODE":"230.1277","TLE_LINE1":"1 48642U 21044E   22222.43080401  .00000203  00000-0  32502-4 0  9996","SEMIMAJOR_AXIS":"6925.384","MEAN_MOTION_DOT":"0.00000203","MEAN_MOTION":"15.06388319","NORAD_CAT_ID":"48642","LAUNCH_DATE":"2021-05-26","COUNTRY_CODE":"US","DECAY_DATE":null,"APOAPSIS":"548.262","EPHEMERIS_TYPE":"0","ECCENTRICITY":"0.00014620","GP_ID":"209967361","ELEMENT_SET_NO":"999","FILE":"3533800","ARG_OF_PERICENTER":"72.5369","TIME_SYSTEM":"UTC","INCLINATION":"53.0527","OBJECT_TYPE":"PAYLOAD","MEAN_ANOMALY":"287.5780","BSTAR":"0.00003250200000","REV_AT_EPOCH":"6667","EPOCH":"2022-08-10T10:20:21.466464","PERIAPSIS":"546.237"}];
